[
    {
        "Altitude(m)": 607910.9940886713,
        "Argument of Periapsis(deg)": 0.0,
        "Eccentricity": 0.0,
        "Inclination(deg)": 60.0,
        "Latitude(deg)": -14.292859940400039,
        "Longitude(deg)": 143.44263253401851,
        "Mean Anomaly(deg)": 196.36359999999996,
        "RAAN(deg)": 55.00000000000001,
        "Satellite Name": "Test1 254",
        "Satellite Number": 254,
        "Semi-Major Axis(m)": 6980739.136638005,
        "Time(s)": 0
    },
    {
        "Altitude(m)": 608060.227229316,
        "Argument of Periapsis(deg)": 0.00010418945913296404,
        "Eccentricity": 0.0,
        "Inclination(deg)": 60.0,
        "Latitude(deg)": -14.82652164778337,
        "Longitude(deg)": 143.73124127834674,
        "Mean Anomaly(deg)": 196.9837061454618,
        "RAAN(deg)": 54.999579950860266,
        "Satellite Name": "Test1 254",
        "Satellite Number": 254,
        "Semi-Major Axis(m)": 6980739.136638005,
        "Time(s)": 10
    },
    {
        "Altitude(m)": 608211.890586257,
        "Argument of Periapsis(deg)": 0.0002083789182659281,
        "Eccentricity": 0.0,
        "Inclination(deg)": 60.0,
        "Latitude(deg)": -15.359667139771096,
        "Longitude(deg)": 144.021458802125,
        "Mean Anomaly(deg)": 197.60381229092366,
        "RAAN(deg)": 54.999159901720525,
        "Satellite Name": "Test1 254",
        "Satellite Number": 254,
        "Semi-Major Axis(m)": 6980739.136638005,
        "Time(s)": 20
    },
    {
        "Altitude(m)": 608365.9360782749,
        "Argument of Periapsis(deg)": 0.00031256837739889213,
        "Eccentricity": 0.0,
        "Inclination(deg)": 60.0,
        "Latitude(deg)": -15.892275207313109,
        "Longitude(deg)": 144.3133525726348,
        "Mean Anomaly(deg)": 198.22391843638547,
        "RAAN(deg)": 54.99873985258077,
        "Satellite Name": "Test1 254",
        "Satellite Number": 254,
        "Semi-Major Axis(m)": 6980739.136638005,
        "Time(s)": 30
    },
    {
        "Altitude(m)": 608522.3144266125,
        "Argument of Periapsis(deg)": 0.0004167578365318562,
        "Eccentricity": 0.0,
        "Inclination(deg)": 60.0,
        "Latitude(deg)": -16.42432430910325,
        "Longitude(deg)": 144.60699157616193,
        "Mean Anomaly(deg)": 198.8440245818473,
        "RAAN(deg)": 54.99831980344103,
        "Satellite Name": "Test1 254",
        "Satellite Number": 254,
        "Semi-Major Axis(m)": 6980739.136638005,
        "Time(s)": 40
    },
    {
        "Altitude(m)": 608680.9751762735,
        "Argument of Periapsis(deg)": 0.0005209472956648203,
        "Eccentricity": 0.0,
        "Inclination(deg)": 60.0,
        "Latitude(deg)": -16.95579255555709,
        "Longitude(deg)": 144.90244535332567,
        "Mean Anomaly(deg)": 199.4641307273091,
        "RAAN(deg)": 54.99789975430129,
        "Satellite Name": "Test1 254",
        "Satellite Number": 254,
        "Semi-Major Axis(m)": 6980739.136638005,
        "Time(s)": 50
    },
    {
        "Altitude(m)": 608841.8667178974,
        "Argument of Periapsis(deg)": 0.0006251367547977843,
        "Eccentricity": 0.0,
        "Inclination(deg)": 60.0,
        "Latitude(deg)": -17.48665769231173,
        "Longitude(deg)": 145.1997845481188,
        "Mean Anomaly(deg)": 200.08423687277096,
        "RAAN(deg)": 54.99747970516154,
        "Satellite Name": "Test1 254",
        "Satellite Number": 254,
        "Semi-Major Axis(m)": 6980739.136638005,
        "Time(s)": 60
    },
    {
        "Altitude(m)": 609004.9363101762,
        "Argument of Periapsis(deg)": 0.0007293262139307483,
        "Eccentricity": 0.0,
        "Inclination(deg)": 60.0,
        "Latitude(deg)": -18.016897083222045,
        "Longitude(deg)": 145.49908145781038,
        "Mean Anomaly(deg)": 200.7043430182328,
        "RAAN(deg)": 54.9970596560218,
        "Satellite Name": "Test1 254",
        "Satellite Number": 254,
        "Semi-Major Axis(m)": 6980739.136638005,
        "Time(s)": 70
    },
    {
        "Altitude(m)": 609170.1301028102,
        "Argument of Periapsis(deg)": 0.0008335156730637124,
        "Eccentricity": 0.0,
        "Inclination(deg)": 60.0,
        "Latitude(deg)": -18.546487692827103,
        "Longitude(deg)": 145.8004090708615,
        "Mean Anomaly(deg)": 201.32444916369465,
        "RAAN(deg)": 54.996639606882056,
        "Satellite Name": "Test1 254",
        "Satellite Number": 254,
        "Semi-Major Axis(m)": 6980739.136638005,
        "Time(s)": 80
    },
    {
        "Altitude(m)": 609337.3931600057,
        "Argument of Periapsis(deg)": 0.0009377051321966765,
        "Eccentricity": 0.0,
        "Inclination(deg)": 60.0,
        "Latitude(deg)": -19.075406068267018,
        "Longitude(deg)": 146.1038416186211,
        "Mean Anomaly(deg)": 201.94455530915644,
        "RAAN(deg)": 54.996219557742315,
        "Satellite Name": "Test1 254",
        "Satellite Number": 254,
        "Semi-Major Axis(m)": 6980739.136638005,
        "Time(s)": 90
    },
    {
        "Altitude(m)": 609506.6694844649,
        "Argument of Periapsis(deg)": 0.0010418945913296407,
        "Eccentricity": 0.0,
        "Inclination(deg)": 60.0,
        "Latitude(deg)": -19.60362832062345,
        "Longitude(deg)": 146.4094551279516,
        "Mean Anomaly(deg)": 202.5646614546183,
        "RAAN(deg)": 54.99579950860257,
        "Satellite Name": "Test1 254",
        "Satellite Number": 254,
        "Semi-Major Axis(m)": 6980739.136638005,
        "Time(s)": 100
    },
    {
        "Altitude(m)": 609677.9020419131,
        "Argument of Periapsis(deg)": 0.0011460840504626045,
        "Eccentricity": 0.0,
        "Inclination(deg)": 60.0,
        "Latitude(deg)": -20.131130105653735,
        "Longitude(deg)": 146.717326461927,
        "Mean Anomaly(deg)": 203.1847676000801,
        "RAAN(deg)": 54.99537945946283,
        "Satellite Name": "Test1 254",
        "Satellite Number": 254,
        "Semi-Major Axis(m)": 6980739.136638005,
        "Time(s)": 110
    },
    {
        "Altitude(m)": 609851.0327860644,
        "Argument of Periapsis(deg)": 0.0012502735095955685,
        "Eccentricity": 0.0,
        "Inclination(deg)": 60.0,
        "Latitude(deg)": -20.65788660389897,
        "Longitude(deg)": 147.02753387436985,
        "Mean Anomaly(deg)": 203.80487374554195,
        "RAAN(deg)": 54.99495941032309,
        "Satellite Name": "Test1 254",
        "Satellite Number": 254,
        "Semi-Major Axis(m)": 6980739.136638005,
        "Time(s)": 120
    },
    {
        "Altitude(m)": 610026.0026841424,
        "Argument of Periapsis(deg)": 0.0013544629687285324,
        "Eccentricity": 0.0,
        "Inclination(deg)": 60.0,
        "Latitude(deg)": -21.183872500133443,
        "Longitude(deg)": 147.34015756536502,
        "Mean Anomaly(deg)": 204.42497989100374,
        "RAAN(deg)": 54.99453936118335,
        "Satellite Name": "Test1 254",
        "Satellite Number": 254,
        "Semi-Major Axis(m)": 6980739.136638005,
        "Time(s)": 130
    },
    {
        "Altitude(m)": 610202.7517427822,
        "Argument of Periapsis(deg)": 0.0014586524278614966,
        "Eccentricity": 0.0,
        "Inclination(deg)": 60.0,
        "Latitude(deg)": -21.7090619621278,
        "Longitude(deg)": 147.65527872489335,
        "Mean Anomaly(deg)": 205.04508603646565,
        "RAAN(deg)": 54.99411931204361,
        "Satellite Name": "Test1 254",
        "Satellite Number": 254,
        "Semi-Major Axis(m)": 6980739.136638005,
        "Time(s)": 140
    },
    {
        "Altitude(m)": 610381.2190344293,
        "Argument of Periapsis(deg)": 0.0015628418869944607,
        "Eccentricity": 0.0,
        "Inclination(deg)": 60.0,
        "Latitude(deg)": -22.23342861869814,
        "Longitude(deg)": 147.97298009033665,
        "Mean Anomaly(deg)": 205.66519218192744,
        "RAAN(deg)": 54.99369926290386,
        "Satellite Name": "Test1 254",
        "Satellite Number": 254,
        "Semi-Major Axis(m)": 6980739.136638005,
        "Time(s)": 150
    },
    {
        "Altitude(m)": 610561.3427241792,
        "Argument of Periapsis(deg)": 0.0016670313461274247,
        "Eccentricity": 0.0,
        "Inclination(deg)": 60.0,
        "Latitude(deg)": -22.75694553701201,
        "Longitude(deg)": 148.29334650499035,
        "Mean Anomaly(deg)": 206.28529832738928,
        "RAAN(deg)": 54.99327921376412,
        "Satellite Name": "Test1 254",
        "Satellite Number": 254,
        "Semi-Major Axis(m)": 6980739.136638005,
        "Time(s)": 160
    },
    {
        "Altitude(m)": 610743.060097016,
        "Argument of Periapsis(deg)": 0.0017712208052603888,
        "Eccentricity": 0.0,
        "Inclination(deg)": 60.0,
        "Latitude(deg)": -23.279585199115175,
        "Longitude(deg)": 148.61646396471062,
        "Mean Anomaly(deg)": 206.90540447285113,
        "RAAN(deg)": 54.99285916462438,
        "Satellite Name": "Test1 254",
        "Satellite Number": 254,
        "Semi-Major Axis(m)": 6980739.136638005,
        "Time(s)": 170
    },
    {
        "Altitude(m)": 610926.3075854711,
        "Argument of Periapsis(deg)": 0.001875410264393353,
        "Eccentricity": 0.0,
        "Inclination(deg)": 60.0,
        "Latitude(deg)": -23.80131947765477,
        "Longitude(deg)": 148.94242017844252,
        "Mean Anomaly(deg)": 207.52551061831298,
        "RAAN(deg)": 54.992439115484636,
        "Satellite Name": "Test1 254",
        "Satellite Number": 254,
        "Semi-Major Axis(m)": 6980739.136638005,
        "Time(s)": 180
    },
    {
        "Altitude(m)": 611111.0207976758,
        "Argument of Periapsis(deg)": 0.0019795997235263173,
        "Eccentricity": 0.0,
        "Inclination(deg)": 60.0,
        "Latitude(deg)": -24.322119610761845,
        "Longitude(deg)": 149.27130512974816,
        "Mean Anomaly(deg)": 208.14561676377474,
        "RAAN(deg)": 54.992019066344895,
        "Satellite Name": "Test1 254",
        "Satellite Number": 254,
        "Semi-Major Axis(m)": 6980739.136638005,
        "Time(s)": 190
    }
]